E-SPACE_L_00016007-281
1 82122U 23854GS  26070.40813657  .00000000  00000+0  00000-0 0  9995
2 82122  66.0000  60.0000 0000000   0.0000 280.6667 14.88602847    19
E-SPACE_L_00016007-282
1 82123U 22296RO  26070.40813657  .00000000  00000+0  00000-0 0  9995
2 82123  66.0000  60.0000 0000000   0.0000 281.6667 14.88602847    11
E-SPACE_L_00016007-283
1 82124U 23407IJ  26070.40813657  .00000000  00000+0  00000-0 0  9991
2 82124  66.0000  60.0000 0000000   0.0000 282.6667 14.88602847    13
E-SPACE_L_00016007-284
1 82125U 24041YY  26070.40813657  .00000000  00000+0  00000-0 0  9997
2 82125  66.0000  60.0000 0000000   0.0000 283.6667 14.88602847    15
E-SPACE_L_00016007-285
1 82126U 23144QV  26070.40813657  .00000000  00000+0  00000-0 0  9991
2 82126  66.0000  60.0000 0000000   0.0000 284.6667 14.88602847    17
E-SPACE_L_00016007-286
1 82127U 23488AI  26070.40813657  .00000000  00000+0  00000-0 0  9993
2 82127  66.0000  60.0000 0000000   0.0000 285.6667 14.88602847    19
E-SPACE_L_00016007-287
1 82128U 22360WV  26070.40813657  .00000000  00000+0  00000-0 0  9992
2 82128  66.0000  60.0000 0000000   0.0000 286.6667 14.88602847    11
E-SPACE_L_00016007-288
1 82129U 26343BM  26070.40813657  .00000000  00000+0  00000-0 0  9998
2 82129  66.0000  60.0000 0000000   0.0000 287.6667 14.88602847    13
E-SPACE_L_00016007-289
1 82130U 26871QT  26070.40813657  .00000000  00000+0  00000-0 0  9996
2 82130  66.0000  60.0000 0000000   0.0000 288.6667 14.88602847    16
E-SPACE_L_00016007-290
1 82131U 24614MV  26070.40813657  .00000000  00000+0  00000-0 0  9990
2 82131  66.0000  60.0000 0000000   0.0000 289.6667 14.88602847    18
E-SPACE_L_00016007-291
1 82132U 24621HL  26070.40813657  .00000000  00000+0  00000-0 0  9999
2 82132  66.0000  60.0000 0000000   0.0000 290.6667 14.88602847    11
E-SPACE_L_00016007-292
1 82133U 25131KW  26070.40813657  .00000000  00000+0  00000-0 0  9997
2 82133  66.0000  60.0000 0000000   0.0000 291.6667 14.88602847    13
E-SPACE_L_00016007-293
1 82134U 24476SQ  26070.40813657  .00000000  00000+0  00000-0 0  9999
2 82134  66.0000  60.0000 0000000   0.0000 292.6667 14.88602847    15
E-SPACE_L_00016007-294
1 82135U 23689YO  26070.40813657  .00000000  00000+0  00000-0 0  9995
2 82135  66.0000  60.0000 0000000   0.0000 293.6667 14.88602847    17
E-SPACE_L_00016007-295
1 82136U 22500IU  26070.40813657  .00000000  00000+0  00000-0 0  9997
2 82136  66.0000  60.0000 0000000   0.0000 294.6667 14.88602847    19
E-SPACE_L_00016007-296
1 82137U 24736SG  26070.40813657  .00000000  00000+0  00000-0 0  9991
2 82137  66.0000  60.0000 0000000   0.0000 295.6667 14.88602847    11
E-SPACE_L_00016007-297
1 82138U 25025ZB  26070.40813657  .00000000  00000+0  00000-0 0  9994
2 82138  66.0000  60.0000 0000000   0.0000 296.6667 14.88602847    13
E-SPACE_L_00016007-298
1 82139U 26197VU  26070.40813657  .00000000  00000+0  00000-0 0  9996
2 82139  66.0000  60.0000 0000000   0.0000 297.6667 14.88602847    15
E-SPACE_L_00016007-299
1 82140U 23532SI  26070.40813657  .00000000  00000+0  00000-0 0  9998
2 82140  66.0000  60.0000 0000000   0.0000 298.6667 14.88602847    18
E-SPACE_L_00016007-300
1 82141U 22879NT  26070.40813657  .00000000  00000+0  00000-0 0  9992
2 82141  66.0000  60.0000 0000000   0.0000 299.6667 14.88602847    10
E-SPACE_L_00016007-301
1 82142U 23460BH  26070.40813657  .00000000  00000+0  00000-0 0  9990
2 82142  66.0000  60.0000 0000000   0.0000 300.6667 14.88602847    14
E-SPACE_L_00016007-302
1 82143U 22081BT  26070.40813657  .00000000  00000+0  00000-0 0  9999
2 82143  66.0000  60.0000 0000000   0.0000 301.6667 14.88602847    16
E-SPACE_L_00016007-303
1 82144U 24009NV  26070.40813657  .00000000  00000+0  00000-0 0  9992
2 82144  66.0000  60.0000 0000000   0.0000 302.6667 14.88602847    18
E-SPACE_L_00016007-304
1 82145U 23274ZC  26070.40813657  .00000000  00000+0  00000-0 0  9996
2 82145  66.0000  60.0000 0000000   0.0000 303.6667 14.88602847    10
E-SPACE_L_00016007-305
1 82146U 22212LZ  26070.40813657  .00000000  00000+0  00000-0 0  9998
2 82146  66.0000  60.0000 0000000   0.0000 304.6667 14.88602847    12
E-SPACE_L_00016007-306
1 82147U 24392SG  26070.40813657  .00000000  00000+0  00000-0 0  9990
2 82147  66.0000  60.0000 0000000   0.0000 305.6667 14.88602847    14
E-SPACE_L_00016007-307
1 82148U 23040BK  26070.40813657  .00000000  00000+0  00000-0 0  9990
2 82148  66.0000  60.0000 0000000   0.0000 306.6667 14.88602847    16
E-SPACE_L_00016007-308
1 82149U 22171MC  26070.40813657  .00000000  00000+0  00000-0 0  9995
2 82149  66.0000  60.0000 0000000   0.0000 307.6667 14.88602847    18
E-SPACE_L_00016007-309
1 82150U 22978YC  26070.40813657  .00000000  00000+0  00000-0 0  9992
2 82150  66.0000  60.0000 0000000   0.0000 308.6667 14.88602847    11
E-SPACE_L_00016007-310
1 82151U 24415OW  26070.40813657  .00000000  00000+0  00000-0 0  9991
2 82151  66.0000  60.0000 0000000   0.0000 309.6667 14.88602847    13
E-SPACE_L_00016007-311
1 82152U 23073XU  26070.40813657  .00000000  00000+0  00000-0 0  9991
2 82152  66.0000  60.0000 0000000   0.0000 310.6667 14.88602847    16
E-SPACE_L_00016007-312
1 82153U 25605T   26070.40813657  .00000000  00000+0  00000-0 0  9995
2 82153  66.0000  60.0000 0000000   0.0000 311.6667 14.88602847    18
E-SPACE_L_00016007-313
1 82154U 22314EH  26070.40813657  .00000000  00000+0  00000-0 0  9990
2 82154  66.0000  60.0000 0000000   0.0000 312.6667 14.88602847    10
E-SPACE_L_00016007-314
1 82155U 22965YB  26070.40813657  .00000000  00000+0  00000-0 0  9993
2 82155  66.0000  60.0000 0000000   0.0000 313.6667 14.88602847    12
E-SPACE_L_00016007-315
1 82156U 24464WF  26070.40813657  .00000000  00000+0  00000-0 0  9990
2 82156  66.0000  60.0000 0000000   0.0000 314.6667 14.88602847    14
E-SPACE_L_00016007-316
1 82157U 23554QO  26070.40813657  .00000000  00000+0  00000-0 0  9990
2 82157  66.0000  60.0000 0000000   0.0000 315.6667 14.88602847    16
E-SPACE_L_00016007-317
1 82158U 26264HP  26070.40813657  .00000000  00000+0  00000-0 0  9992
2 82158  66.0000  60.0000 0000000   0.0000 316.6667 14.88602847    18
E-SPACE_L_00016007-318
1 82159U 25672HT  26070.40813657  .00000000  00000+0  00000-0 0  9995
2 82159  66.0000  60.0000 0000000   0.0000 317.6667 14.88602847    10
E-SPACE_L_00016007-319
1 82160U 22688YF  26070.40813657  .00000000  00000+0  00000-0 0  9991
2 82160  66.0000  60.0000 0000000   0.0000 318.6667 14.88602847    13
E-SPACE_L_00016007-320
1 82161U 26427IM  26070.40813657  .00000000  00000+0  00000-0 0  9997
2 82161  66.0000  60.0000 0000000   0.0000 319.6667 14.88602847    15
E-SPACE_L_00016007-321
1 82162U 22359NM  26070.40813657  .00000000  00000+0  00000-0 0  9998
2 82162  66.0000  60.0000 0000000   0.0000 320.6667 14.88602847    18
E-SPACE_L_00016007-322
1 82163U 22236ZW  26070.40813657  .00000000  00000+0  00000-0 0  9993
2 82163  66.0000  60.0000 0000000   0.0000 321.6667 14.88602847    10
E-SPACE_L_00016007-323
1 82164U 26815FN  26070.40813657  .00000000  00000+0  00000-0 0  9991
2 82164  66.0000  60.0000 0000000   0.0000 322.6667 14.88602847    12
E-SPACE_L_00016007-324
1 82165U 23831CL  26070.40813657  .00000000  00000+0  00000-0 0  9997
2 82165  66.0000  60.0000 0000000   0.0000 323.6667 14.88602847    14
E-SPACE_L_00016007-325
1 82166U 26105LD  26070.40813657  .00000000  00000+0  00000-0 0  9995
2 82166  66.0000  60.0000 0000000   0.0000 324.6667 14.88602847    16
E-SPACE_L_00016007-326
1 82167U 26633DE  26070.40813657  .00000000  00000+0  00000-0 0  9992
2 82167  66.0000  60.0000 0000000   0.0000 325.6667 14.88602847    18
E-SPACE_L_00016007-327
1 82168U 24503BF  26070.40813657  .00000000  00000+0  00000-0 0  9997
2 82168  66.0000  60.0000 0000000   0.0000 326.6667 14.88602847    10
E-SPACE_L_00016007-328
1 82169U 23011VG  26070.40813657  .00000000  00000+0  00000-0 0  9991
2 82169  66.0000  60.0000 0000000   0.0000 327.6667 14.88602847    12
E-SPACE_L_00016007-329
1 82170U 24296AZ  26070.40813657  .00000000  00000+0  00000-0 0  9999
2 82170  66.0000  60.0000 0000000   0.0000 328.6667 14.88602847    15
E-SPACE_L_00016007-330
1 82171U 26625HO  26070.40813657  .00000000  00000+0  00000-0 0  9998
2 82171  66.0000  60.0000 0000000   0.0000 329.6667 14.88602847    17
E-SPACE_L_00016007-331
1 82172U 25846NL  26070.40813657  .00000000  00000+0  00000-0 0  9993
2 82172  66.0000  60.0000 0000000   0.0000 330.6667 14.88602847    10
E-SPACE_L_00016007-332
1 82173U 23785YL  26070.40813657  .00000000  00000+0  00000-0 0  9994
2 82173  66.0000  60.0000 0000000   0.0000 331.6667 14.88602847    12
E-SPACE_L_00016007-333
1 82174U 24902GP  26070.40813657  .00000000  00000+0  00000-0 0  9997
2 82174  66.0000  60.0000 0000000   0.0000 332.6667 14.88602847    14
E-SPACE_L_00016007-334
1 82175U 25047GP  26070.40813657  .00000000  00000+0  00000-0 0  9999
2 82175  66.0000  60.0000 0000000   0.0000 333.6667 14.88602847    16
E-SPACE_L_00016007-335
1 82176U 23515DD  26070.40813657  .00000000  00000+0  00000-0 0  9998
2 82176  66.0000  60.0000 0000000   0.0000 334.6667 14.88602847    18
E-SPACE_L_00016007-336
1 82177U 23935UR  26070.40813657  .00000000  00000+0  00000-0 0  9995
2 82177  66.0000  60.0000 0000000   0.0000 335.6667 14.88602847    10
E-SPACE_L_00016007-337
1 82178U 25717DK  26070.40813657  .00000000  00000+0  00000-0 0  9996
2 82178  66.0000  60.0000 0000000   0.0000 336.6667 14.88602847    12
E-SPACE_L_00016007-338
1 82179U 22993MQ  26070.40813657  .00000000  00000+0  00000-0 0  9990
2 82179  66.0000  60.0000 0000000   0.0000 337.6667 14.88602847    14
E-SPACE_L_00016007-339
1 82180U 24723KL  26070.40813657  .00000000  00000+0  00000-0 0  9995
2 82180  66.0000  60.0000 0000000   0.0000 338.6667 14.88602847    17
E-SPACE_L_00016007-340
1 82181U 22666ZN  26070.40813657  .00000000  00000+0  00000-0 0  9990
2 82181  66.0000  60.0000 0000000   0.0000 339.6667 14.88602847    19
E-SPACE_L_00016007-341
1 82182U 25768HB  26070.40813657  .00000000  00000+0  00000-0 0  9997
2 82182  66.0000  60.0000 0000000   0.0000 340.6667 14.88602847    12
